OBJECT_NAME,OBJECT_ID,EPOCH,MEAN_MOTION,ECCENTRICITY,INCLINATION,RA_OF_ASC_NODE,ARG_OF_PERICENTER,MEAN_ANOMALY,EPHEMERIS_TYPE,CLASSIFICATION_TYPE,NORAD_CAT_ID,ELEMENT_SET_NO,REV_AT_EPOCH,BSTAR,MEAN_MOTION_DOT,MEAN_MOTION_DDOT
STARLINK-37892,2026-131H,2026-07-06T14:48:09.899136,15.80794617,.0000754,97.2849,209.0344,81.8627,278.2727,0,U,69485,999,523,.56622E-3,.109579E-2,0
STARLINK-37893,2026-131J,2026-07-06T13:15:54.590688,15.80806533,.000138,97.2853,208.9692,94.8147,265.3279,0,U,69486,999,522,.93924E-3,.183522E-2,0
STARLINK-37842,2026-131K,2026-07-07T02:00:03.000384,15.77204468,.0001909,97.2847,209.5313,80.9403,56.7964,0,U,69487,999,520,-.1728E-1,-.2423934E-1,0
STARLINK-37449,2026-131L,2026-07-07T02:54:08.176608,15.80844550,.0001334,97.2850,209.5738,45.9772,314.1606,0,U,69488,999,531,.65349E-3,.127036E-2,0
STARLINK-37831,2026-131M,2026-07-07T01:25:46.103232,15.74696684,.0001174,97.2850,209.5042,312.5281,47.5884,0,U,69489,999,530,-.73961E-2,-.964771E-2,0
STARLINK-37879,2026-131N,2026-07-07T02:00:03.000384,15.76639242,.000162,97.2845,209.5366,77.6222,72.3818,0,U,69490,999,520,-.84052E-2,-.1187782E-1,0
STARLINK-37856,2026-131P,2026-07-07T00:00:40.888800,15.80934106,.0001203,97.2847,209.4317,133.8142,226.3225,0,U,69491,999,529,.17171E-2,.343921E-2,0
STARLINK-37568,2026-131Q,2026-07-07T02:00:03.000384,15.77006226,.0001896,97.2847,209.5404,72.3152,86.2325,0,U,69492,999,529,-.17153E-1,-.2390428E-1,0
STARLINK-37855,2026-131R,2026-07-06T23:56:20.842944,15.80984142,.0001295,97.2852,209.4353,99.4914,260.6501,0,U,69493,999,529,.16837E-2,.337747E-2,0
STARLINK-37854,2026-131S,2026-07-07T01:28:42.502656,15.80340304,.0008365,97.2835,209.5004,330.8728,29.2072,0,U,69494,999,530,-.21159E-1,-.3342454E-1,0
STARLINK-37789,2026-131T,2026-07-06T23:44:25.037952,15.80080086,.0003869,97.2849,209.4462,299.1522,60.9358,0,U,69495,999,403,-.21919E-2,-.388892E-2,0
STARLINK-37839,2026-131U,2026-07-06T07:11:49.755552,15.80895416,.00012689,97.2852,208.7010,339.6601,20.4617,0,U,69496,999,392,.14473463E-2,.287467E-2,0
STARLINK-37798,2026-131V,2026-07-07T01:14:29.999040,15.80432516,.0004088,97.2848,209.5161,206.1348,153.9714,0,U,69497,999,404,.14554E-2,.282958E-2,0
STARLINK-37853,2026-131W,2026-07-06T23:37:45.322176,15.80869249,.0001137,97.2851,209.4530,82.8547,277.2851,0,U,69498,999,403,.69897E-3,.136184E-2,0
STARLINK-37849,2026-131X,2026-07-07T02:00:03.000384,15.76170440,.000166,97.2851,209.5517,76.0210,114.4191,0,U,69499,999,528,-.18247E-1,-.2440951E-1,0
STARLINK-37835,2026-131Y,2026-07-07T02:00:03.000384,15.76612419,.0001654,97.2852,209.5494,83.0082,100.0545,0,U,69500,999,417,-.17473E-1,-.2392038E-1,0
STARLINK-37843,2026-131Z,2026-07-07T02:00:03.000384,15.75388374,.0001716,97.2851,209.5495,81.6511,101.5797,0,U,69501,999,526,-.18314E-1,-.2377561E-1,0
STARS-X,2026-132A,2026-07-06T15:30:24.568416,14.99090739,.0013807,97.6881,251.0633,196.1421,163.9364,0,U,69502,999,369,.13573E-3,.1592E-4,0
PETREL,2026-132B,2026-07-07T02:41:09.197664,14.99171530,.0013723,97.6910,251.5359,196.3653,163.7129,0,U,69503,999,376,.10125E-3,.1175E-4,0
BRO-22,2026-132C,2026-07-07T04:02:15.661248,14.99792054,.0015697,97.6834,251.5926,210.1194,149.9128,0,U,69504,999,377,.8945E-4,.1049E-4,0
HORN-L,2026-132D,2026-07-06T18:09:28.010016,15.09869061,.0023891,97.6850,251.3568,235.1742,124.7239,0,U,69505,999,372,.18125E-3,.2886E-4,0
VERTECS,2026-132E,2026-07-07T03:34:45.626016,15.00972779,.0014764,97.6836,251.6286,233.4745,126.5120,0,U,69506,999,376,.13443E-3,.1658E-4,0
HORN-R,2026-132F,2026-07-06T15:39:25.735680,15.05068508,.0017329,97.6795,251.1816,233.9883,125.9737,0,U,69507,999,369,.12091E-3,.1661E-4,0
STARLINK-37536,2026-133A,2026-07-07T02:00:03.000384,15.49307030,.0001043,53.1597,223.6379,83.6103,28.2255,0,U,69508,999,517,.94342E-3,.5237E-3,0
STARLINK-37341,2026-133B,2026-07-07T02:00:03.000384,15.49269808,.0001579,53.1597,223.6581,127.7041,334.0400,0,U,69509,999,517,.11713E-2,.65149E-3,0
STARLINK-36536,2026-133C,2026-07-07T02:00:03.000384,15.54635314,.0001091,53.1602,222.9297,69.8150,31.8207,0,U,69510,999,511,-.41103E-1,-.2415584E-1,0
STARLINK-37420,2026-133D,2026-07-07T02:00:03.000384,15.58455730,.0001203,53.1600,222.7195,79.5215,124.8141,0,U,69511,999,506,-.2491E-1,-.1729025E-1,0
STARLINK-37511,2026-133E,2026-07-07T02:00:03.000384,15.57044952,.0001688,53.1598,222.7277,83.6217,117.0466,0,U,69512,999,506,-.33658E-1,-.2194315E-1,0
STARLINK-37552,2026-133F,2026-07-07T03:05:55.339008,15.49344510,.0000997,53.1591,223.4313,53.6708,306.4393,0,U,69513,999,517,.90736E-3,.50405E-3,0
STARLINK-37607,2026-133G,2026-07-07T02:00:03.000384,15.53700460,.0001586,53.1607,222.7450,82.1630,109.8196,0,U,69514,999,506,-.42855E-1,-.2431205E-1,0
