STARLINK-37892          
1 69485U 26131H   26187.61678124  .00109579  00000+0  56622-3 0  9998
2 69485  97.2849 209.0344 0000754  81.8627 278.2727 15.80794617  5236
STARLINK-37893          
1 69486U 26131J   26187.55271517  .00183522  00000+0  93924-3 0  9993
2 69486  97.2853 208.9692 0001380  94.8147 265.3279 15.80806533  5222
STARLINK-37842          
1 69487U 26131K   26188.08336806 -.02423934  00000+0 -17280-1 0  9993
2 69487  97.2847 209.5313 0001909  80.9403  56.7964 15.77204468  5207
STARLINK-37449          
1 69488U 26131L   26188.12092797  .00127036  00000+0  65349-3 0  9998
2 69488  97.2850 209.5738 0001334  45.9772 314.1606 15.80844550  5317
STARLINK-37831          
1 69489U 26131M   26188.05956138 -.00964771  00000+0 -73961-2 0  9994
2 69489  97.2850 209.5042 0001174 312.5281  47.5884 15.74696684  5306
STARLINK-37879          
1 69490U 26131N   26188.08336806 -.01187782  00000+0 -84052-2 0  9996
2 69490  97.2845 209.5366 0001620  77.6222  72.3818 15.76639242  5202
STARLINK-37856          
1 69491U 26131P   26188.00047325  .00343921  00000+0  17171-2 0  9998
2 69491  97.2847 209.4317 0001203 133.8142 226.3225 15.80934106  5297
STARLINK-37568          
1 69492U 26131Q   26188.08336806 -.02390428  00000+0 -17153-1 0  9999
2 69492  97.2847 209.5404 0001896  72.3152  86.2325 15.77006226  5295
STARLINK-37855          
1 69493U 26131R   26187.99746346  .00337747  00000+0  16837-2 0  9993
2 69493  97.2852 209.4353 0001295  99.4914 260.6501 15.80984142  5293
STARLINK-37854          
1 69494U 26131S   26188.06160304 -.03342454  00000+0 -21159-1 0  9995
2 69494  97.2835 209.5004 0008365 330.8728  29.2072 15.80340304  5309
STARLINK-37789          
1 69495U 26131T   26187.98917868 -.00388892  00000+0 -21919-2 0  9999
2 69495  97.2849 209.4462 0003869 299.1522  60.9358 15.80080086  4031
STARLINK-37839          
1 69496U 26131U   26187.29988143  .00287467  00000+0  14473-2 0  9999
2 69496  97.2852 208.7010 0001268 339.6601  20.4617 15.80895416  3923
STARLINK-37798          
1 69497U 26131V   26188.05173610  .00282958  00000+0  14554-2 0  9990
2 69497  97.2848 209.5161 0004088 206.1348 153.9714 15.80432516  4046
STARLINK-37853          
1 69498U 26131W   26187.98455234  .00136184  00000+0  69897-3 0  9997
2 69498  97.2851 209.4530 0001137  82.8547 277.2851 15.80869249  4030
STARLINK-37849          
1 69499U 26131X   26188.08336806 -.02440951  00000+0 -18247-1 0  9998
2 69499  97.2851 209.5517 0001660  76.0210 114.4191 15.76170440  5280
STARLINK-37835          
1 69500U 26131Y   26188.08336806 -.02392038  00000+0 -17473-1 0  9993
2 69500  97.2852 209.5494 0001654  83.0082 100.0545 15.76612419  4174
STARLINK-37843          
1 69501U 26131Z   26188.08336806 -.02377561  00000+0 -18314-1 0  9993
2 69501  97.2851 209.5495 0001716  81.6511 101.5797 15.75388374  5260
STARS-X                 
1 69502U 26132A   26187.64611769  .00001592  00000+0  13573-3 0  9998
2 69502  97.6881 251.0633 0013807 196.1421 163.9364 14.99090739  3697
PETREL                  
1 69503U 26132B   26188.11191201  .00001175  00000+0  10125-3 0  9993
2 69503  97.6910 251.5359 0013723 196.3653 163.7129 14.99171530  3761
BRO-22                  
1 69504U 26132C   26188.16823682  .00001049  00000+0  89450-4 0  9992
2 69504  97.6834 251.5926 0015697 210.1194 149.9128 14.99792054  3770
HORN-L                  
1 69505U 26132D   26187.75657419  .00002886  00000+0  18125-3 0  9990
2 69505  97.6850 251.3568 0023891 235.1742 124.7239 15.09869061  3724
VERTECS                 
1 69506U 26132E   26188.14913919  .00001658  00000+0  13443-3 0  9999
2 69506  97.6836 251.6286 0014764 233.4745 126.5120 15.00972779  3767
HORN-R                  
1 69507U 26132F   26187.65238120  .00001661  00000+0  12091-3 0  9991
2 69507  97.6795 251.1816 0017329 233.9883 125.9737 15.05068508  3694
STARLINK-37536          
1 69508U 26133A   26188.08336806  .00052370  00000+0  94342-3 0  9993
2 69508  53.1597 223.6379 0001043  83.6103  28.2255 15.49307030  5170
STARLINK-37341          
1 69509U 26133B   26188.08336806  .00065149  00000+0  11713-2 0  9992
2 69509  53.1597 223.6581 0001579 127.7041 334.0400 15.49269808  5171
STARLINK-36536          
1 69510U 26133C   26188.08336806 -.02415584  00000+0 -41103-1 0  9995
2 69510  53.1602 222.9297 0001091  69.8150  31.8207 15.54635314  5118
STARLINK-37420          
1 69511U 26133D   26188.08336806 -.01729025  00000+0 -24910-1 0  9990
2 69511  53.1600 222.7195 0001203  79.5215 124.8141 15.58455730  5067
STARLINK-37511          
1 69512U 26133E   26188.08336806 -.02194315  00000+0 -33658-1 0  9999
2 69512  53.1598 222.7277 0001688  83.6217 117.0466 15.57044952  5063
STARLINK-37552          
1 69513U 26133F   26188.12911272  .00050405  00000+0  90736-3 0  9990
2 69513  53.1591 223.4313 0000997  53.6708 306.4393 15.49344510  5179
STARLINK-37607          
1 69514U 26133G   26188.08336806 -.02431205  00000+0 -42855-1 0  9992
2 69514  53.1607 222.7450 0001586  82.1630 109.8196 15.53700460  5067
